{
  "type": "FeatureCollection",
  "features": [
    {
      "type": "Feature",
      "properties": {
        "norad_id": 35445,
        "name": "COSMOS 2251 DEB",
        "group": "cosmos-2251-debris",
        "lat": -69.85399884540124,
        "lon": -121.86557093020366,
        "alt_km": 705.5894952008775,
        "timestamp": "2025-12-18T07:01:54.985669+00:00",
        "meta_object_name": "COSMOS 2251 DEB",
        "meta_object_id": "1993-036AKP",
        "meta_epoch": "2025-12-17T06:42:04.647744",
        "meta_mean_motion": 14.59249055,
        "meta_eccentricity": 0.01438268,
        "meta_inclination": 74.0366,
        "meta_ra_of_asc_node": 291.3504,
        "meta_arg_of_pericenter": 17.2397,
        "meta_mean_anomaly": 343.3577,
        "meta_ephemeris_type": 0,
        "meta_classification_type": "U",
        "meta_norad_cat_id": 35445,
        "meta_element_set_no": 999,
        "meta_rev_at_epoch": 87395,
        "meta_bstar": 0.0017069803,
        "meta_mean_motion_dot": 9.291e-05,
        "meta_mean_motion_ddot": 0,
        "tle_line1": "1 35445U 93036AKP 25351.27922046  .00009291  00000+0  17070-2 0  9997",
        "tle_line2": "2 35445  74.0366 291.3504 0143826  17.2397 343.3577 14.59249055873954"
      },
      "geometry": {
        "type": "Point",
        "coordinates": [
          -121.86557093020366,
          -69.85399884540124
        ]
      }
    },
    {
      "type": "Feature",
      "properties": {
        "norad_id": 35446,
        "name": "COSMOS 2251 DEB",
        "group": "cosmos-2251-debris",
        "lat": -46.63271040679894,
        "lon": 145.31115124938736,
        "alt_km": 767.8590410592778,
        "timestamp": "2025-12-18T07:01:54.985688+00:00",
        "meta_object_name": "COSMOS 2251 DEB",
        "meta_object_id": "1993-036AKQ",
        "meta_epoch": "2025-12-15T15:15:54.535104",
        "meta_mean_motion": 14.54632134,
        "meta_eccentricity": 0.00744411,
        "meta_inclination": 74.047,
        "meta_ra_of_asc_node": 312.705,
        "meta_arg_of_pericenter": 70.0614,
        "meta_mean_anomaly": 290.8548,
        "meta_ephemeris_type": 0,
        "meta_classification_type": "U",
        "meta_norad_cat_id": 35446,
        "meta_element_set_no": 999,
        "meta_rev_at_epoch": 88050,
        "meta_bstar": 0.00011676696,
        "meta_mean_motion_dot": 4.88e-06,
        "meta_mean_motion_ddot": 0,
        "tle_line1": "1 35446U 93036AKQ 25349.63604786  .00000488  00000+0  11677-3 0  9990",
        "tle_line2": "2 35446  74.0470 312.7050 0074441  70.0614 290.8548 14.54632134880502"
      },
      "geometry": {
        "type": "Point",
        "coordinates": [
          145.31115124938736,
          -46.63271040679894
        ]
      }
    },
    {
      "type": "Feature",
      "properties": {
        "norad_id": 35448,
        "name": "COSMOS 2251 DEB",
        "group": "cosmos-2251-debris",
        "lat": 71.5701809632374,
        "lon": 138.9810678857441,
        "alt_km": 712.960818873521,
        "timestamp": "2025-12-18T07:01:54.985705+00:00",
        "meta_object_name": "COSMOS 2251 DEB",
        "meta_object_id": "1993-036AKS",
        "meta_epoch": "2025-12-17T15:48:08.057376",
        "meta_mean_motion": 14.54306329,
        "meta_eccentricity": 0.00121573,
        "meta_inclination": 73.9037,
        "meta_ra_of_asc_node": 80.133,
        "meta_arg_of_pericenter": 263.1799,
        "meta_mean_anomaly": 96.798,
        "meta_ephemeris_type": 0,
        "meta_classification_type": "U",
        "meta_norad_cat_id": 35448,
        "meta_element_set_no": 999,
        "meta_rev_at_epoch": 87406,
        "meta_bstar": 0.00080210225,
        "meta_mean_motion_dot": 3.379e-05,
        "meta_mean_motion_ddot": 0,
        "tle_line1": "1 35448U 93036AKS 25351.65842659  .00003379  00000+0  80210-3 0  9991",
        "tle_line2": "2 35448  73.9037  80.1330 0012157 263.1799  96.7980 14.54306329874064"
      },
      "geometry": {
        "type": "Point",
        "coordinates": [
          138.9810678857441,
          71.5701809632374
        ]
      }
    },
    {
      "type": "Feature",
      "properties": {
        "norad_id": 35451,
        "name": "COSMOS 2251 DEB",
        "group": "cosmos-2251-debris",
        "lat": -63.02677308765967,
        "lon": 56.175372285920886,
        "alt_km": 443.9462548706679,
        "timestamp": "2025-12-18T07:01:54.985724+00:00",
        "meta_object_name": "COSMOS 2251 DEB",
        "meta_object_id": "1993-036AKV",
        "meta_epoch": "2025-12-17T17:15:28.493856",
        "meta_mean_motion": 15.36093817,
        "meta_eccentricity": 0.00413048,
        "meta_inclination": 73.9333,
        "meta_ra_of_asc_node": 91.9079,
        "meta_arg_of_pericenter": 337.1935,
        "meta_mean_anomaly": 22.7433,
        "meta_ephemeris_type": 0,
        "meta_classification_type": "U",
        "meta_norad_cat_id": 35451,
        "meta_element_set_no": 999,
        "meta_rev_at_epoch": 67482,
        "meta_bstar": 0.0011227563,
        "meta_mean_motion_dot": 0.00040788,
        "meta_mean_motion_ddot": 0,
        "tle_line1": "1 35451U 93036AKV 25351.71907979  .00040788  00000+0  11228-2 0  9996",
        "tle_line2": "2 35451  73.9333  91.9079 0041304 337.1935  22.7433 15.36093817674827"
      },
      "geometry": {
        "type": "Point",
        "coordinates": [
          56.175372285920886,
          -63.02677308765967
        ]
      }
    },
    {
      "type": "Feature",
      "properties": {
        "norad_id": 35453,
        "name": "COSMOS 2251 DEB",
        "group": "cosmos-2251-debris",
        "lat": 10.435575839776142,
        "lon": -172.89916624792392,
        "alt_km": 723.2999195353632,
        "timestamp": "2025-12-18T07:01:54.985742+00:00",
        "meta_object_name": "COSMOS 2251 DEB",
        "meta_object_id": "1993-036AKX",
        "meta_epoch": "2025-12-16T19:11:22.117056",
        "meta_mean_motion": 14.38003213,
        "meta_eccentricity": 0.00669431,
        "meta_inclination": 74.0096,
        "meta_ra_of_asc_node": 12.8823,
        "meta_arg_of_pericenter": 145.8531,
        "meta_mean_anomaly": 214.6957,
        "meta_ephemeris_type": 0,
        "meta_classification_type": "U",
        "meta_norad_cat_id": 35453,
        "meta_element_set_no": 999,
        "meta_rev_at_epoch": 86277,
        "meta_bstar": 0.00051941791,
        "meta_mean_motion_dot": 1.586e-05,
        "meta_mean_motion_ddot": 0,
        "tle_line1": "1 35453U 93036AKX 25350.79956154  .00001586  00000+0  51942-3 0  9995",
        "tle_line2": "2 35453  74.0096  12.8823 0066943 145.8531 214.6957 14.38003213862776"
      },
      "geometry": {
        "type": "Point",
        "coordinates": [
          -172.89916624792392,
          10.435575839776142
        ]
      }
    },
    {
      "type": "Feature",
      "properties": {
        "norad_id": 35455,
        "name": "COSMOS 2251 DEB",
        "group": "cosmos-2251-debris",
        "lat": -64.06267351735333,
        "lon": 140.45480518847407,
        "alt_km": 785.7408976994193,
        "timestamp": "2025-12-18T07:01:54.985753+00:00",
        "meta_object_name": "COSMOS 2251 DEB",
        "meta_object_id": "1993-036AKZ",
        "meta_epoch": "2025-12-15T06:39:23.942880",
        "meta_mean_motion": 14.49440801,
        "meta_eccentricity": 0.00992528,
        "meta_inclination": 74.0281,
        "meta_ra_of_asc_node": 290.039,
        "meta_arg_of_pericenter": 32.9545,
        "meta_mean_anomaly": 327.7748,
        "meta_ephemeris_type": 0,
        "meta_classification_type": "U",
        "meta_norad_cat_id": 35455,
        "meta_element_set_no": 999,
        "meta_rev_at_epoch": 86580,
        "meta_bstar": 0.0011136115,
        "meta_mean_motion_dot": 4.513e-05,
        "meta_mean_motion_ddot": 0,
        "tle_line1": "1 35455U 93036AKZ 25349.27736045  .00004513  00000+0  11136-2 0  9996",
        "tle_line2": "2 35455  74.0281 290.0390 0099252  32.9545 327.7748 14.49440801865804"
      },
      "geometry": {
        "type": "Point",
        "coordinates": [
          140.45480518847407,
          -64.06267351735333
        ]
      }
    },
    {
      "type": "Feature",
      "properties": {
        "norad_id": 35456,
        "name": "COSMOS 2251 DEB",
        "group": "cosmos-2251-debris",
        "lat": -63.85276325788682,
        "lon": 70.75883542925561,
        "alt_km": 626.723820039665,
        "timestamp": "2025-12-18T07:01:54.985763+00:00",
        "meta_object_name": "COSMOS 2251 DEB",
        "meta_object_id": "1993-036ALA",
        "meta_epoch": "2025-12-16T14:29:43.540224",
        "meta_mean_motion": 14.69499444,
        "meta_eccentricity": 0.00664454,
        "meta_inclination": 73.9504,
        "meta_ra_of_asc_node": 109.9489,
        "meta_arg_of_pericenter": 318.8739,
        "meta_mean_anomaly": 40.7432,
        "meta_ephemeris_type": 0,
        "meta_classification_type": "U",
        "meta_norad_cat_id": 35456,
        "meta_element_set_no": 999,
        "meta_rev_at_epoch": 65932,
        "meta_bstar": 0.0012425086,
        "meta_mean_motion_dot": 7.595e-05,
        "meta_mean_motion_ddot": 0,
        "tle_line1": "1 35456U 93036ALA 25350.60397616  .00007595  00000+0  12425-2 0  9998",
        "tle_line2": "2 35456  73.9504 109.9489 0066445 318.8739  40.7432 14.69499444659326"
      },
      "geometry": {
        "type": "Point",
        "coordinates": [
          70.75883542925561,
          -63.85276325788682
        ]
      }
    }
  ]
}